0 COSMOS 2447 (GLONASS)
1 33466U 08067A   13283.90881479  .00000019  00000-0  00000+0 0  3304
2 33466 064.0440 229.4828 0005298 260.4207 099.5208 02.13106045 37300
0 COSMOS 2447 (GLONASS)
1 33466U 08067A   13286.72428780 -.00000021  00000-0  00000+0 0  3314
2 33466 064.0432 229.3862 0005411 261.6394 098.2962 02.13106267 37360
0 COSMOS 2447 (GLONASS)
1 33466U 08067A   13289.07050386 -.00000040  00000-0  00000+0 0  3320
2 33466 064.0426 229.3029 0005239 262.0961 097.8308 02.13106482 37415
0 COSMOS 2447 (GLONASS)
1 33466U 08067A   13290.47820590  .00000000  00000-0  10000-3 0  3340
2 33466 064.0421 229.2540 0005587 259.3634 100.5640 02.13110360 37443
0 COSMOS 2447 (GLONASS)
1 33466U 08067A   13291.41674840 -.00000030  00000-0  00000+0 0  3338
2 33466 064.0420 229.2210 0005098 260.9886 098.9500 02.13106659 37463
0 COSMOS 2447 (GLONASS)
1 33466U 08067A   13294.23224579 -.00000005  00000-0  00000+0 0  3344
2 33466 064.0415 229.1227 0005143 261.3085 098.6621 02.13107086 37524
0 COSMOS 2447 (GLONASS)
1 33466U 08067A   13296.10920116 -.00000000  00000-0  00000+0 0  3358
2 33466 064.0411 229.0578 0005183 261.7663 098.1901 02.13107302 37569
